[{"OBJECT_NAME":"ESEO","OBJECT_ID":"2018-099AL","EPOCH":"2026-03-09T15:43:37.559712","MEAN_MOTION":15.03914518,"ECCENTRICITY":0.00110626,"INCLINATION":97.4113,"RA_OF_ASC_NODE":110.2601,"ARG_OF_PERICENTER":317.6,"MEAN_ANOMALY":42.4371,"EPHEMERIS_TYPE":0,"CLASSIFICATION_TYPE":"U","NORAD_CAT_ID":43792,"ELEMENT_SET_NO":999,"REV_AT_EPOCH":39684,"BSTAR":0.00020934561,"MEAN_MOTION_DOT":2.831e-5,"MEAN_MOTION_DDOT":0},{"OBJECT_NAME":"STARLINK-5576","OBJECT_ID":"2023-013BD","EPOCH":"2026-03-08T16:42:38.652480","MEAN_MOTION":15.02539135,"ECCENTRICITY":0.00012251,"INCLINATION":43.0045,"RA_OF_ASC_NODE":318.4067,"ARG_OF_PERICENTER":265.3874,"MEAN_ANOMALY":94.6829,"EPHEMERIS_TYPE":0,"CLASSIFICATION_TYPE":"U","NORAD_CAT_ID":55382,"ELEMENT_SET_NO":999,"REV_AT_EPOCH":17141,"BSTAR":5.6539268e-5,"MEAN_MOTION_DOT":5.6e-6,"MEAN_MOTION_DDOT":0}]
