ESEO                    
1 43792U 18099AL  26068.65529582  .00002831  00000+0  20935-3 0  9991
2 43792  97.4113 110.2601 0011063 317.6000  42.4371 15.03914518396849
STARLINK-5576           
1 55382U 23013BD  26067.69628070  .00000560  00000+0  56539-4 0  9993
2 55382  43.0045 318.4067 0001225 265.3874  94.6829 15.02539135171411
